KUIPER-00035            
1 63748U 25088AA  25257.45448994  .00002896  00000+0  40945-3 0  9998
2 63748  51.9004 173.4112 0004519 201.1430 158.9346 14.79863993 21411
KUIPER-00037            
1 63749U 25088AB  25257.18592939  .00000783  00000+0  13191-3 0  9994
2 63749  51.8971 173.5611 0006806 147.0688 213.0700 14.79935906 22178
KUIPER-00038            
1 63750U 25088AC  25257.58335648  .00013804  00000+0  15107-2 0  9998
2 63750  51.8959 156.3376 0006654 202.0265 278.9291 14.88018982  4572
KUIPER-00039            
1 64500U 25134A   25257.58335648 -.01382093  00000+0 -99316-1 0  9999
2 64500  51.8866 293.0744 0012795  66.9546  24.1720 15.06890827  5838
KUIPER-00040            
1 64501U 25134B   25257.43202794  .00002150  00000+0  31217-3 0  9997
2 64501  51.8997 303.6498 0018265  52.3236 307.9380 14.79740182 13819
KUIPER-00041            
1 64502U 25134C   25257.43113300 -.00009074  00000+0 -11621-2 0  9992
2 64502  51.8989 305.0173 0014913  49.8368 310.3898 14.79861151 13799
KUIPER-00042            
1 64503U 25134D   25257.58335648  .00039894  00000+0  52427-2 0  9990
2 64503  51.8992 300.3027 0014543  54.8635  35.9413 14.79771972  4987
KUIPER-00043            
1 64504U 25134E   25257.58335648  .00028621  00000+0  20709-2 0  9995
2 64504  51.8875 294.1222 0007797  52.9495 306.0294 15.03770857  5643
